{
    "links": {
        "self": "http://www.neowsapp.com/rest/v1/neo/3555650?api_key=iIulBulltgU6a56xZRHN4H3l9WmuAYTsLGpBGhQ2"
    },
    "id": "3555650",
    "neo_reference_id": "3555650",
    "name": "(2011 BU10)",
    "designation": "2011 BU10",
    "nasa_jpl_url": "http://ssd.jpl.nasa.gov/sbdb.cgi?sstr=3555650",
    "absolute_magnitude_h": 21.3,
    "estimated_diameter": {
        "kilometers": {
            "estimated_diameter_min": 0.1460679643,
            "estimated_diameter_max": 0.3266178974
        },
        "meters": {
            "estimated_diameter_min": 146.0679642714,
            "estimated_diameter_max": 326.6178974458
        },
        "miles": {
            "estimated_diameter_min": 0.090762397,
            "estimated_diameter_max": 0.2029508896
        },
        "feet": {
            "estimated_diameter_min": 479.2256199,
            "estimated_diameter_max": 1071.581062656
        }
    },
    "is_potentially_hazardous_asteroid": false,
    "close_approach_data": [
        {
            "close_approach_date": "2008-12-28",
            "close_approach_date_full": "2008-Dec-28 13:59",
            "epoch_date_close_approach": 1230472740000,
            "relative_velocity": {
                "kilometers_per_second": "15.5500821166",
                "kilometers_per_hour": "55980.2956197938",
                "miles_per_hour": "34783.9786866436"
            },
            "miss_distance": {
                "astronomical": "0.4528354609",
                "lunar": "176.1529942901",
                "kilometers": "67743220.411108283",
                "miles": "42093685.2533409854"
            },
            "orbiting_body": "Earth"
        },
        {
            "close_approach_date": "2011-01-05",
            "close_approach_date_full": "2011-Jan-05 03:02",
            "epoch_date_close_approach": 1294196520000,
            "relative_velocity": {
                "kilometers_per_second": "22.6647527747",
                "kilometers_per_hour": "81593.1099887555",
                "miles_per_hour": "50698.7854816242"
            },
            "miss_distance": {
                "astronomical": "0.1772614778",
                "lunar": "68.9547148642",
                "kilometers": "26517939.511932286",
                "miles": "16477483.5416501068"
            },
            "orbiting_body": "Earth"
        },
        {
            "close_approach_date": "2013-01-16",
            "close_approach_date_full": "2013-Jan-16 00:52",
            "epoch_date_close_approach": 1358297520000,
            "relative_velocity": {
                "kilometers_per_second": "30.9354062402",
                "kilometers_per_hour": "111367.4624646962",
                "miles_per_hour": "69199.4102186886"
            },
            "miss_distance": {
                "astronomical": "0.1380900328",
                "lunar": "53.7170227592",
                "kilometers": "20657974.775110136",
                "miles": "12836270.2994904368"
            },
            "orbiting_body": "Earth"
        },
        {
            "close_approach_date": "2015-01-28",
            "close_approach_date_full": "2015-Jan-28 12:16",
            "epoch_date_close_approach": 1422447360000,
            "relative_velocity": {
                "kilometers_per_second": "39.3180676649",
                "kilometers_per_hour": "141545.0435936864",
                "miles_per_hour": "87950.5855596437"
            },
            "miss_distance": {
                "astronomical": "0.3888175602",
                "lunar": "151.2500309178",
                "kilometers": "58166278.824516774",
                "miles": "36142849.6953445212"
            },
            "orbiting_body": "Earth"
        },
        {
            "close_approach_date": "2021-05-21",
            "close_approach_date_full": "2021-May-21 07:13",
            "epoch_date_close_approach": 1621581180000,
            "relative_velocity": {
                "kilometers_per_second": "18.0028813884",
                "kilometers_per_hour": "64810.3729982141",
                "miles_per_hour": "40270.6453776959"
            },
            "miss_distance": {
                "astronomical": "0.0948352133",
                "lunar": "36.8908979737",
                "kilometers": "14187145.910675671",
                "miles": "8815483.6894834198"
            },
            "orbiting_body": "Mars"
        }
    ],
    "orbital_data": {
        "orbit_id": "12",
        "orbit_determination_date": "2020-08-12 06:21:07",
        "first_observation_date": "2011-01-16",
        "last_observation_date": "2011-02-10",
        "data_arc_in_days": 25,
        "observations_used": 49,
        "orbit_uncertainty": "7",
        "minimum_orbit_intersection": ".0721402",
        "jupiter_tisserand_invariant": "3.903",
        "epoch_osculation": "2459000.5",
        "eccentricity": ".7868643431381803",
        "semi_major_axis": "1.611137951201214",
        "inclination": "11.13132229910495",
        "ascending_node_longitude": "132.5092124548814",
        "orbital_period": "746.9602971718788",
        "perihelion_distance": ".3433909455242771",
        "perihelion_argument": "218.943483325401",
        "aphelion_distance": "2.878884956878151",
        "perihelion_time": "2459254.341793038225",
        "mean_anomaly": "237.6601034355468",
        "mean_motion": ".4819533265195251",
        "equinox": "J2000",
        "orbit_class": {
            "orbit_class_type": "APO",
            "orbit_class_description": "Near-Earth asteroid orbits which cross the Earth’s orbit similar to that of 1862 Apollo",
            "orbit_class_range": "a (semi-major axis) > 1.0 AU; q (perihelion) < 1.017 AU"
        }
    },
    "is_sentry_object": false
}